{
    "links": {
        "self": "http://www.neowsapp.com/rest/v1/neo/3273482?api_key=iIulBulltgU6a56xZRHN4H3l9WmuAYTsLGpBGhQ2"
    },
    "id": "3273482",
    "neo_reference_id": "3273482",
    "name": "(2005 ET2)",
    "designation": "2005 ET2",
    "nasa_jpl_url": "http://ssd.jpl.nasa.gov/sbdb.cgi?sstr=3273482",
    "absolute_magnitude_h": 20.7,
    "estimated_diameter": {
        "kilometers": {
            "estimated_diameter_min": 0.1925550782,
            "estimated_diameter_max": 0.4305662442
        },
        "meters": {
            "estimated_diameter_min": 192.5550781879,
            "estimated_diameter_max": 430.566244241
        },
        "miles": {
            "estimated_diameter_min": 0.1196481415,
            "estimated_diameter_max": 0.2675413778
        },
        "feet": {
            "estimated_diameter_min": 631.7424027221,
            "estimated_diameter_max": 1412.6189567557
        }
    },
    "is_potentially_hazardous_asteroid": false,
    "close_approach_data": [
        {
            "close_approach_date": "2005-06-16",
            "close_approach_date_full": "2005-Jun-16 15:08",
            "epoch_date_close_approach": 1118934480000,
            "relative_velocity": {
                "kilometers_per_second": "10.8747173281",
                "kilometers_per_hour": "39148.9823810916",
                "miles_per_hour": "24325.6551911844"
            },
            "miss_distance": {
                "astronomical": "0.1557350351",
                "lunar": "60.5809286539",
                "kilometers": "23297629.535335237",
                "miles": "14476475.7101587906"
            },
            "orbiting_body": "Earth"
        }
    ],
    "orbital_data": {
        "orbit_id": "7",
        "orbit_determination_date": "2017-04-06 09:11:25",
        "first_observation_date": "2005-03-04",
        "last_observation_date": "2005-03-08",
        "data_arc_in_days": 4,
        "observations_used": 22,
        "orbit_uncertainty": "9",
        "minimum_orbit_intersection": ".0605789",
        "jupiter_tisserand_invariant": "3.404",
        "epoch_osculation": "2453435.5",
        "eccentricity": ".604904336633672",
        "semi_major_axis": "2.190627698916342",
        "inclination": "5.702204641188697",
        "ascending_node_longitude": "333.7874088282431",
        "orbital_period": "1184.271530029205",
        "perihelion_distance": ".8655075038920048",
        "perihelion_argument": "268.297091669625",
        "aphelion_distance": "3.515747893940679",
        "perihelion_time": "2453520.119763701069",
        "mean_anomaly": "334.2769169401264",
        "mean_motion": ".3039843404756358",
        "equinox": "J2000",
        "orbit_class": {
            "orbit_class_type": "APO",
            "orbit_class_description": "Near-Earth asteroid orbits which cross the Earth’s orbit similar to that of 1862 Apollo",
            "orbit_class_range": "a (semi-major axis) > 1.0 AU; q (perihelion) < 1.017 AU"
        }
    },
    "is_sentry_object": false
}